SHIYAN-1 (SY-1)         
1 28220U 04012A   26068.73650539  .00016393  00000+0  54854-3 0  9991
2 28220  97.8764 140.5238 0005873  23.6952 336.4557 15.31043463195862
STARLINK-34177          
1 64170U 25113A   26068.34317631  .00027361  00000+0  93258-3 0  9998
2 64170  53.1590  92.6323 0000942  85.0968 275.0140 15.30198320 45010
